{"type": "FeatureCollection", "features": [ {"type": "Feature", "properties": {"norad_id": 33748, "name": "FENGYUN 1C DEB", "group": "fengyun-1c-debris", "lat": 22.072137841117808, "lon": -125.30880095917952, "alt_km": 765.4045689662225, "timestamp": "2025-12-26T03:50:12.380643+00:00", "meta": {"OBJECT_NAME": "FENGYUN 1C DEB", "OBJECT_ID": "1999-025DJM", "EPOCH": "2025-12-20T21:21:40.065984", "MEAN_MOTION": 14.32332217, "ECCENTRICITY": 0.0034916, "INCLINATION": 98.5853, "RA_OF_ASC_NODE": 45.9627, "ARG_OF_PERICENTER": 216.6923, "MEAN_ANOMALY": 143.1869, "EPHEMERIS_TYPE": 0, "CLASSIFICATION_TYPE": "U", "NORAD_CAT_ID": 33748, "ELEMENT_SET_NO": 999, "REV_AT_EPOCH": 91510, "BSTAR": 0.00084448, "MEAN_MOTION_DOT": 2.253e-05, "MEAN_MOTION_DDOT": 0}, "tle": {"line1": "1 33748U 99025DJM 25354.89004706  .00002253  00000+0  84448-3 0  9995", "line2": "2 33748  98.5853  45.9627 0034916 216.6923 143.1869 14.32332217915106"}}, "geometry": {"type": "Point", "coordinates": [-125.30880095917952, 22.072137841117808]}}, {"type": "Feature", "properties": {"norad_id": 35088, "name": "FENGYUN 1C DEB", "group": "fengyun-1c-debris", "lat": -22.615833817353188, "lon": 171.19212612464023, "alt_km": 1048.883429723097, "timestamp": "2025-12-26T03:50:12.380653+00:00", "meta": {"OBJECT_NAME": "FENGYUN 1C DEB", "OBJECT_ID": "1999-025DJQ", "EPOCH": "2025-12-20T06:48:25.112736", "MEAN_MOTION": 14.12178698, "ECCENTRICITY": 0.02665925, "INCLINATION": 94.6216, "RA_OF_ASC_NODE": 166.2192, "ARG_OF_PERICENTER": 179.9936, "MEAN_ANOMALY": 180.1297, "EPHEMERIS_TYPE": 0, "CLASSIFICATION_TYPE": "U", "NORAD_CAT_ID": 35088, "ELEMENT_SET_NO": 999, "REV_AT_EPOCH": 58906, "BSTAR": 0.004541836, "MEAN_MOTION_DOT": 0.00011675, "MEAN_MOTION_DDOT": 0}, "tle": {"line1": "1 35088U 99025DJQ 25354.28362399  .00011675  00000+0  45418-2 0  9993", "line2": "2 35088  94.6216 166.2192 0266592 179.9936 180.1297 14.12178698589068"}}, "geometry": {"type": "Point", "coordinates": [171.19212612464023, -22.615833817353188]}}, {"type": "Feature", "properties": {"norad_id": 35089, "name": "FENGYUN 1C DEB", "group": "fengyun-1c-debris", "lat": -58.14308495306106, "lon": 175.5207155197122, "alt_km": 851.5909635291491, "timestamp": "2025-12-26T03:50:12.380663+00:00", "meta": {"OBJECT_NAME": "FENGYUN 1C DEB", "OBJECT_ID": "1999-025DJR", "EPOCH": "2025-12-23T07:02:36.109536", "MEAN_MOTION": 14.19444078, "ECCENTRICITY": 0.00286047, "INCLINATION": 98.5591, "RA_OF_ASC_NODE": 6.7767, "ARG_OF_PERICENTER": 34.5935, "MEAN_ANOMALY": 325.7095, "EPHEMERIS_TYPE": 0, "CLASSIFICATION_TYPE": "U", "NORAD_CAT_ID": 35089, "ELEMENT_SET_NO": 999, "REV_AT_EPOCH": 61025, "BSTAR": 0.00054341362, "MEAN_MOTION_DOT": 1.106e-05, "MEAN_MOTION_DDOT": 0}, "tle": {"line1": "1 35089U 99025DJR 25357.29347349  .00001106  00000+0  54341-3 0  9990", "line2": "2 35089  98.5591   6.7767 0028604  34.5935 325.7095 14.19444078610253"}}, "geometry": {"type": "Point", "coordinates": [175.5207155197122, -58.14308495306106]}}, {"type": "Feature", "properties": {"norad_id": 35090, "name": "FENGYUN 1C DEB", "group": "fengyun-1c-debris", "lat": 63.971430140014654, "lon": -147.29372070087783, "alt_km": 856.0491451181415, "timestamp": "2025-12-26T03:50:12.380675+00:00", "meta": {"OBJECT_NAME": "FENGYUN 1C DEB", "OBJECT_ID": "1999-025DJS", "EPOCH": "2025-12-15T11:31:21.871200", "MEAN_MOTION": 14.17610468, "ECCENTRICITY": 0.00548506, "INCLINATION": 99.1994, "RA_OF_ASC_NODE": 2.2725, "ARG_OF_PERICENTER": 7.0781, "MEAN_ANOMALY": 353.1155, "EPHEMERIS_TYPE": 0, "CLASSIFICATION_TYPE": "U", "NORAD_CAT_ID": 35090, "ELEMENT_SET_NO": 999, "REV_AT_EPOCH": 66289, "BSTAR": 0.0011364277, "MEAN_MOTION_DOT": 2.298e-05, "MEAN_MOTION_DDOT": 0}, "tle": {"line1": "1 35090U 99025DJS 25349.48011425  .00002298  00000+0  11364-2 0  9997", "line2": "2 35090  99.1994   2.2725 0054850   7.0781 353.1155 14.17610468662895"}}, "geometry": {"type": "Point", "coordinates": [-147.29372070087783, 63.971430140014654]}}, {"type": "Feature", "properties": {"norad_id": 35091, "name": "FENGYUN 1C DEB", "group": "fengyun-1c-debris", "lat": 53.41043592933779, "lon": 93.22789064242484, "alt_km": 715.739002313464, "timestamp": "2025-12-26T03:50:12.380685+00:00", "meta": {"OBJECT_NAME": "FENGYUN 1C DEB", "OBJECT_ID": "1999-025DJT", "EPOCH": "2025-12-25T06:13:57.794880", "MEAN_MOTION": 14.61875756, "ECCENTRICITY": 0.0049836, "INCLINATION": 98.5978, "RA_OF_ASC_NODE": 104.0512, "ARG_OF_PERICENTER": 253.6551, "MEAN_ANOMALY": 105.9166, "EPHEMERIS_TYPE": 0, "CLASSIFICATION_TYPE": "U", "NORAD_CAT_ID": 35091, "ELEMENT_SET_NO": 999, "REV_AT_EPOCH": 90110, "BSTAR": 0.0030716, "MEAN_MOTION_DOT": 0.00015611, "MEAN_MOTION_DDOT": 0}, "tle": {"line1": "1 35091U 99025DJT 25359.25969670  .00015611  00000+0  30716-2 0  9993", "line2": "2 35091  98.5978 104.0512 0049836 253.6551 105.9166 14.61875756901105"}}, "geometry": {"type": "Point", "coordinates": [93.22789064242484, 53.41043592933779]}}, {"type": "Feature", "properties": {"norad_id": 35102, "name": "FENGYUN 1C DEB", "group": "fengyun-1c-debris", "lat": 62.48904714186914, "lon": -6.581542616635347, "alt_km": 746.5004928543576, "timestamp": "2025-12-26T03:50:12.380695+00:00", "meta": {"OBJECT_NAME": "FENGYUN 1C DEB", "OBJECT_ID": "1999-025DKE", "EPOCH": "2025-12-13T06:19:02.409312", "MEAN_MOTION": 14.28874039, "ECCENTRICITY": 0.00607637, "INCLINATION": 98.4802, "RA_OF_ASC_NODE": 357.5239, "ARG_OF_PERICENTER": 90.2418, "MEAN_ANOMALY": 270.5727, "EPHEMERIS_TYPE": 0, "CLASSIFICATION_TYPE": "U", "NORAD_CAT_ID": 35102, "ELEMENT_SET_NO": 999, "REV_AT_EPOCH": 64920, "BSTAR": 0.00073405609, "MEAN_MOTION_DOT": 1.848e-05, "MEAN_MOTION_DDOT": 0}, "tle": {"line1": "1 35102U 99025DKE 25347.26322233  .00001848  00000+0  73406-3 0  9993", "line2": "2 35102  98.4802 357.5239 0060763  90.2418 270.5727 14.28874039649201"}}, "geometry": {"type": "Point", "coordinates": [-6.581542616635347, 62.48904714186914]}}, {"type": "Feature", "properties": {"norad_id": 35104, "name": "FENGYUN 1C DEB", "group": "fengyun-1c-debris", "lat": 4.772712817709922, "lon": -172.79206416235252, "alt_km": 819.5272167357389, "timestamp": "2025-12-26T03:50:12.380709+00:00", "meta": {"OBJECT_NAME": "FENGYUN 1C DEB", "OBJECT_ID": "1999-025DKG", "EPOCH": "2025-12-20T06:46:17.192352", "MEAN_MOTION": 14.20340868, "ECCENTRICITY": 0.00314522, "INCLINATION": 98.5954, "RA_OF_ASC_NODE": 0.7725, "ARG_OF_PERICENTER": 119.6618, "MEAN_ANOMALY": 257.8395, "EPHEMERIS_TYPE": 0, "CLASSIFICATION_TYPE": "U", "NORAD_CAT_ID": 35104, "ELEMENT_SET_NO": 999, "REV_AT_EPOCH": 89874, "BSTAR": 0.00030233796, "MEAN_MOTION_DOT": 6.08e-06, "MEAN_MOTION_DDOT": 0}, "tle": {"line1": "1 35104U 99025DKG 25354.28214343  .00000608  00000+0  30234-3 0  9992", "line2": "2 35104  98.5954   0.7725 0031452 119.6618 257.8395 14.20340868898744"}}, "geometry": {"type": "Point", "coordinates": [-172.79206416235252, 4.772712817709922]}}, {"type": "Feature", "properties": {"norad_id": 35105, "name": "FENGYUN 1C DEB", "group": "fengyun-1c-debris", "lat": -18.581190462853883, "lon": -15.039868755105296, "alt_km": 678.6022808232401, "timestamp": "2025-12-26T03:50:12.380721+00:00", "meta": {"OBJECT_NAME": "FENGYUN 1C DEB", "OBJECT_ID": "1999-025DKH", "EPOCH": "2025-12-24T05:24:14.039136", "MEAN_MOTION": 14.45410929, "ECCENTRICITY": 0.01123178, "INCLINATION": 98.9452, "RA_OF_ASC_NODE": 339.887, "ARG_OF_PERICENTER": 20.4148, "MEAN_ANOMALY": 340.1478, "EPHEMERIS_TYPE": 0, "CLASSIFICATION_TYPE": "U", "NORAD_CAT_ID": 35105, "ELEMENT_SET_NO": 999, "REV_AT_EPOCH": 94659, "BSTAR": 0.00038829935, "MEAN_MOTION_DOT": 1.423e-05, "MEAN_MOTION_DDOT": 0}, "tle": {"line1": "1 35105U 99025DKH 25358.22516249  .00001423  00000+0  38830-3 0  9997", "line2": "2 35105  98.9452 339.8870 0112317  20.4148 340.1478 14.45410929946594"}}, "geometry": {"type": "Point", "coordinates": [-15.039868755105296, -18.581190462853883]}}, {"type": "Feature", "properties": {"norad_id": 35108, "name": "FENGYUN 1C DEB", "group": "fengyun-1c-debris", "lat": -71.81134806586516, "lon": 147.30233676082926, "alt_km": 939.1992320968639, "timestamp": "2025-12-26T03:50:12.380731+00:00", "meta": {"OBJECT_NAME": "FENGYUN 1C DEB", "OBJECT_ID": "1999-025DKL", "EPOCH": "2025-12-14T17:32:43.265184", "MEAN_MOTION": 14.06913766, "ECCENTRICITY": 0.01353379, "INCLINATION": 98.801, "RA_OF_ASC_NODE": 344.3103, "ARG_OF_PERICENTER": 55.9263, "MEAN_ANOMALY": 305.4667, "EPHEMERIS_TYPE": 0, "CLASSIFICATION_TYPE": "U", "NORAD_CAT_ID": 35108, "ELEMENT_SET_NO": 999, "REV_AT_EPOCH": 89266, "BSTAR": 0.00032621951, "MEAN_MOTION_DOT": 5.49e-06, "MEAN_MOTION_DDOT": 0}, "tle": {"line1": "1 35108U 99025DKL 25348.73105631  .00000549  00000+0  32622-3 0  9995", "line2": "2 35108  98.8010 344.3103 0135337  55.9263 305.4667 14.06913766892660"}}, "geometry": {"type": "Point", "coordinates": [147.30233676082926, -71.81134806586516]}}, {"type": "Feature", "properties": {"norad_id": 35109, "name": "FENGYUN 1C DEB", "group": "fengyun-1c-debris", "lat": 5.928217585729298, "lon": -11.791177676960604, "alt_km": 716.1950622806453, "timestamp": "2025-12-26T03:50:12.380741+00:00", "meta": {"OBJECT_NAME": "FENGYUN 1C DEB", "OBJECT_ID": "1999-025DKM", "EPOCH": "2025-12-24T16:19:09.812352", "MEAN_MOTION": 14.20893527, "ECCENTRICITY": 0.01527734, "INCLINATION": 98.6161, "RA_OF_ASC_NODE": 347.6674, "ARG_OF_PERICENTER": 359.9171, "MEAN_ANOMALY": 0.1956, "EPHEMERIS_TYPE": 0, "CLASSIFICATION_TYPE": "U", "NORAD_CAT_ID": 35109, "ELEMENT_SET_NO": 999, "REV_AT_EPOCH": 64329, "BSTAR": 0.00031423303, "MEAN_MOTION_DOT": 7.21e-06, "MEAN_MOTION_DDOT": 0}, "tle": {"line1": "1 35109U 99025DKM 25358.67997468  .00000721  00000+0  31423-3 0  9997", "line2": "2 35109  98.6161 347.6674 0152773 359.9171   0.1956 14.20893527643294"}}, "geometry": {"type": "Point", "coordinates": [-11.791177676960604, 5.928217585729298]}}]}